{
  "local": [
      {
        "project": "PCS_20_529 - JUNDIAI",
        "se": "JUNDIAI", 
        "zipCode": 1
      },
    {
      "project": "PCS_20_529 - LONDRINA",
      "se": "LONDRINA",
      "zipCode": 2
      },
    {
      "project": "PCS_20_529 - SAO PAULO",
      "se": "SAO PAULO",
      "zipCode": 3
      },
    {
      "project": "PCS_20_529 - CAMPINAS",
      "se": "CAMPINAS",
      "zipCode": 4
      },
    {
      "project": "PCS_20_529 - RIO DE JANEIRO",
      "se": "RIO DE JANEIRO",
      "zipCode": 5
      },
    {
      "project": "PCS_20_529 - PORTO DE GALINHAS",
      "se": "PORTO DE GALINHAS",
      "zipCode": 6
      },
    {
      "project": "PCS_20_529 - MARIANA",
      "se": "MARIANA",
      "zipCode": 7
      },
    {
      "project": "PCS_20_529 - BRASILIA",
      "se": "BRASILIA",
      "zipCode": 8
      },
    {
      "project": "PCS_20_529 - CACONDE",
      "se": "CACONDE",
      "zipCode": 10
      },
    {
      "project": "PCS_20_529 - ITABAIANA",
      "se": "ITABAIANA",
      "zipCode": 11
      },
    {
      "project": "PCS_20_529 - ADRIA",
      "se": "ADRIA",
      "zipCode": 12
      },
    {
      "project": "PCS_20_529 - ITARARE",
      "se": "ITARARE",
      "zipCode": 13
      },
    {
      "project": "PCS_20_529 - CUBA",
      "se": "CUBA",
      "zipCode": 14
      },
    {
      "project": "PCS_20_529 - RECIFE",
      "se": "RECIFE",
      "zipCode": 15
    },
    {
      "project": "PCS_20_529 - PORTO ALEGRE",
      "se": "PORTO ALEGRE",
      "zipCode": 16
      },
    {
      "project": "PCS_20_529 - BELO HORIZONTE",
      "se": "BELO HORIZONTE",
      "zipCode": 17
      },
    {
      "project": "PCS_20_529 - MACEIO",
      "se": "MACEIO",
      "zipCode": 18
      },
    {
      "project": "PCS_20_529 - BRAGANÇA PT",
      "se": "BRAGANÇA PT",
      "zipCode": 19
      },
    {
      "project": "PCS_20_529 - MANAUS",
      "se": "MANAUS",
      "zipCode": 20
      },
    {
      "project": "PCS_20_529 - CURITIBA",
      "se": "CURITIBA",
      "zipCode": 21
      },
    {
      "project": "PCS_20_529 - MAIRIPORÃ",
      "se": "MAIRIPORÃ",
      "zipCode": 22
      },
    {
      "project": "PCS_20_529 - TERESINA",
      "se": "TERESINA",
      "zipCode": 23
      },
    {
      "project": "PCS_20_529 - CAMPO LIMPO",
      "se": "CAMPO LIMPO",
      "zipCode": 24
      },
    {
      "project": "PCS_20_529 - CABREUVA",
      "se": "CABREUVA",
      "zipCode": 25
      },
    {
      "project": "PCS_20_529 - FLORIANOPOLIS",
      "se": "FLORIANOPOLIS",
      "zipCode": 26
      },
    {
      "project": "PCS_20_529 - RIO DO SUL",
      "se": "RIO DO SUL",
      "zipCode": 27
      },
    {
      "project": "PCS_20_529 - CAMPO LARGO",
      "se": "CAMPO LARGO",
      "zipCode": 28
      },
    {
      "project": "PCS_20_529 - ASSIS",
      "se": "ASSIS",
      "zipCode": 29
      },
    {
      "project": "PCS_20_529 - JARINU",
      "se": "JARINU",
      "zipCode": 30
      },
    {
      "project": "PCS_20_529 - VISTA BELA",
      "se": "VISTA BELA",
      "zipCode": 31
      },
    {
      "project": "PCS_20_529 - FORTALEZA",
      "se": "FORTALEZA",
      "zipCode": 32
      },
    {
      "project": "PCS_20_529 - SALVADOR",
      "se": "SALVADOR",
      "zipCode": 33
      },
    {
      "project": "PCS_20_529 - GUARULHOS",
      "se": "GUARULHOS",
      "zipCode": 34
      },
    {
      "project": "PCS_20_529 - BOTUCATU",
      "se": "BOTUCATU",
      "zipCode": 35
      },
    {
      "project": "PCS_20_529 - PELOTAS",
      "se": "PELOTAS",
      "zipCode": 36
      },
    {
      "project": "PCS_20_529 - RIO ACIMA",
      "se": "RIO ACIMA",
      "zipCode": 37
      },
    {
      "project": "PCS_20_529 - COMERCIAL",
      "se": "COMERCIAL",
      "zipCode": 38
      },
    {
      "project": "PCS_20_529 - RETIRO",
      "se": "RETIRO",
      "zipCode": 39
      },
    {
      "project": "PCS_20_529 - CAXAMBU",
      "se": "CAXAMBU",
      "zipCode": 40
      },
    {
      "project": "PCS_20_529 - VIRACOPOS",
      "se": "VIRACOPOS",
      "zipCode": 41
      },
    {
      "project": "PCS_20_529 - SANTOS",
      "se": "SANTOS",
      "zipCode": 42
      },
    {
      "project": "PCS_20_529 - LEME",
      "se": "LEME",
      "zipCode": 43
      },
    {
      "project": "PCS_20_529 - GOIAIS",
      "se": "GOIAIS",
      "zipCode": 44
      },
    {
      "project": "PCS_20_529 - CAMANDUCAIA",
      "se": "CAMANDUCAIA",
      "zipCode": 45
      },
    {
      "project": "PCS_20_529 - EXTREMA",
      "se": "EXTREMA",
      "zipCode": 46
      },
    {
      "project": "PCS_20_529 - PRAIA GRANDE",
      "se": "PRAIA GRANDE",
      "zipCode": 47
      },
    {
      "project": "PCS_20_529 - ESPIRITO SANTO",
      "se": "ESPIRITO SANTO",
      "zipCode": 48
      },
    {
      "project": "PCS_20_529 - LIMEIRA",
      "se": "LIMEIRA",
      "zipCode": 49
      },
    {
      "project": "PCS_20_529 - GRAMADO",
      "se": "GRAMADO",
      "zipCode": 50
      }
],
"colaborador": [
  [
    { "name": "Matheus Carvalho", "matricula": 1 },
    { "name": "Pedro Paulo", "matricula": 2 },
    { "name": "João Henrique", "matricula": 3 },
    { "name": "Jonathan silva", "matricula": 4 },
    { "name": "Felipe Pinheiro", "matricula": 5 },
    { "name": "Lucas Silva", "matricula": 6 },
    { "name": "Amanda Oliveira", "matricula": 7 },
    { "name": "Gabriel Santos", "matricula": 8 },
    { "name": "Carolina Almeida", "matricula": 9 },
    { "name": "Bruno Henrique", "matricula": 10 },
    { "name": "Patricia Costa", "matricula": 11 },
    { "name": "Rafael Pereira", "matricula": 12 },
    { "name": "Mariana Souza", "matricula": 13 },
    { "name": "Lucas Nunes", "matricula": 14 },
    { "name": "Isabela Lima", "matricula": 15 }
  ]
]
}